STARLINK-3334           
1 50823U 22001W   26068.57760774 -.00000828  00000+0 -33951-4 0  9992
2 50823  53.2176 169.6234 0000994 110.1015 250.0084 15.08838666230393
STRIX-5                 
1 65971U 25229A   26068.48916036  .00006129  00000+0  44900-3 0  9994
2 65971  41.9265 119.8574 0036941 120.2079 240.2413 15.03509399 21964
